IRIDIUM 166             
1 43570U 18061B   25339.19900487  .00000176  00000+0  55878-4 0  9995
2 43570  86.3969 137.8551 0002148  94.3225 265.8216 14.34218944385592
IRIDIUM 158             
1 43571U 18061C   25338.81844843  .00000211  00000+0  68305-4 0  9996
2 43571  86.3967 138.0240 0001744  94.4289 265.7106 14.34219596385503
IRIDIUM 165             
1 43572U 18061D   25338.98335936  .00000167  00000+0  52447-4 0  9993
2 43572  86.3971 137.9976 0002148  93.1864 266.9578 14.34219257385552
IRIDIUM 155             
1 43573U 18061E   25338.94530524  .00000003  00000+0 -61370-5 0  9996
2 43573  86.3967 137.8924 0001914  98.8907 261.2505 14.34217857385518
IRIDIUM 154             
1 43574U 18061F   25338.99605955  .00000475  00000+0  16264-3 0  9995
2 43574  86.3970 137.9952 0002015  90.8916 269.2511 14.34215448385575
IRIDIUM 163             
1 43575U 18061G   25338.97702379  .00000256  00000+0  84281-4 0  9994
2 43575  86.3967 137.9244 0001842  90.3370 269.8037 14.34218780385540
IRIDIUM 156             
1 43576U 18061H   25338.81211094 -.00000022  00000+0 -14879-4 0  9996
2 43576  86.3970 138.0004 0001896 101.0452 259.0957 14.34217290385515
IRIDIUM 164             
1 43577U 18061J   25339.28147591  .00000320  00000+0  10731-3 0  9990
2 43577  86.3969 137.8414 0002203  93.4749 266.6699 14.34220095385628
